{
  "type": "FeatureCollection",
  "features": [
    {
      "type": "Feature",
      "properties": {
        "norad_id": 66822,
        "name": "STARLINK-35958",
        "group": "last-30-days",
        "lat": -38.93575376538855,
        "lon": -5.518860996021261,
        "alt_km": 413.4504342412547,
        "timestamp": "2025-12-27T17:24:56.106190+00:00",
        "meta_object_name": "STARLINK-35958",
        "meta_object_id": "2025-280B",
        "meta_epoch": "2025-12-27T11:49:25.986432",
        "meta_mean_motion": 15.52551239,
        "meta_eccentricity": 0.0003557,
        "meta_inclination": 70.0002,
        "meta_ra_of_asc_node": 158.0053,
        "meta_arg_of_pericenter": 269.6939,
        "meta_mean_anomaly": 90.384,
        "meta_ephemeris_type": 0,
        "meta_classification_type": "U",
        "meta_norad_cat_id": 66822,
        "meta_element_set_no": 999,
        "meta_rev_at_epoch": 522,
        "meta_bstar": 0.0011529,
        "meta_mean_motion_dot": 0.00071488,
        "meta_mean_motion_ddot": 0,
        "tle_line1": "1 66822U 25280B   25361.49266188  .00071488  00000+0  11529-2 0  9999",
        "tle_line2": "2 66822  70.0002 158.0053 0003557 269.6939  90.3840 15.52551239  5222"
      },
      "geometry": {
        "type": "Point",
        "coordinates": [
          -5.518860996021261,
          -38.93575376538855
        ]
      }
    },
    {
      "type": "Feature",
      "properties": {
        "norad_id": 66823,
        "name": "STARLINK-35957",
        "group": "last-30-days",
        "lat": -40.66460091515069,
        "lon": -4.401477189780608,
        "alt_km": 413.50943783429466,
        "timestamp": "2025-12-27T17:24:56.106200+00:00",
        "meta_object_name": "STARLINK-35957",
        "meta_object_id": "2025-280C",
        "meta_epoch": "2025-12-27T11:48:56.473056",
        "meta_mean_motion": 15.52561587,
        "meta_eccentricity": 0.0003259,
        "meta_inclination": 70.0001,
        "meta_ra_of_asc_node": 158.0036,
        "meta_arg_of_pericenter": 269.6818,
        "meta_mean_anomaly": 90.3996,
        "meta_ephemeris_type": 0,
        "meta_classification_type": "U",
        "meta_norad_cat_id": 66823,
        "meta_element_set_no": 999,
        "meta_rev_at_epoch": 522,
        "meta_bstar": 0.0019504,
        "meta_mean_motion_dot": 0.00121865,
        "meta_mean_motion_ddot": 0,
        "tle_line1": "1 66823U 25280C   25361.49232029  .00121865  00000+0  19504-2 0  9993",
        "tle_line2": "2 66823  70.0001 158.0036 0003259 269.6818  90.3996 15.52561587  5227"
      },
      "geometry": {
        "type": "Point",
        "coordinates": [
          -4.401477189780608,
          -40.66460091515069
        ]
      }
    },
    {
      "type": "Feature",
      "properties": {
        "norad_id": 66824,
        "name": "STARLINK-35896",
        "group": "last-30-days",
        "lat": -42.37439721694166,
        "lon": -3.2293716629004874,
        "alt_km": 413.5004165894743,
        "timestamp": "2025-12-27T17:24:56.106210+00:00",
        "meta_object_name": "STARLINK-35896",
        "meta_object_id": "2025-280D",
        "meta_epoch": "2025-12-27T11:48:26.873280",
        "meta_mean_motion": 15.52564737,
        "meta_eccentricity": 0.0003224,
        "meta_inclination": 70,
        "meta_ra_of_asc_node": 158.0026,
        "meta_arg_of_pericenter": 270.3224,
        "meta_mean_anomaly": 89.7593,
        "meta_ephemeris_type": 0,
        "meta_classification_type": "U",
        "meta_norad_cat_id": 66824,
        "meta_element_set_no": 999,
        "meta_rev_at_epoch": 522,
        "meta_bstar": 0.0025451,
        "meta_mean_motion_dot": 0.00159859,
        "meta_mean_motion_ddot": 0,
        "tle_line1": "1 66824U 25280D   25361.49197770  .00159859  00000+0  25451-2 0  9999",
        "tle_line2": "2 66824  70.0000 158.0026 0003224 270.3224  89.7593 15.52564737  5223"
      },
      "geometry": {
        "type": "Point",
        "coordinates": [
          -3.2293716629004874,
          -42.37439721694166
        ]
      }
    },
    {
      "type": "Feature",
      "properties": {
        "norad_id": 66825,
        "name": "STARLINK-35476",
        "group": "last-30-days",
        "lat": -44.0432938333472,
        "lon": -2.013970106289532,
        "alt_km": 413.7118346556881,
        "timestamp": "2025-12-27T17:24:56.106220+00:00",
        "meta_object_name": "STARLINK-35476",
        "meta_object_id": "2025-280E",
        "meta_epoch": "2025-12-27T11:47:57.145632",
        "meta_mean_motion": 15.52547274,
        "meta_eccentricity": 0.0003194,
        "meta_inclination": 70.0002,
        "meta_ra_of_asc_node": 158.001,
        "meta_arg_of_pericenter": 270.8101,
        "meta_mean_anomaly": 89.272,
        "meta_ephemeris_type": 0,
        "meta_classification_type": "U",
        "meta_norad_cat_id": 66825,
        "meta_element_set_no": 999,
        "meta_rev_at_epoch": 522,
        "meta_bstar": 0.0012113,
        "meta_mean_motion_dot": 0.00075135,
        "meta_mean_motion_ddot": 0,
        "tle_line1": "1 66825U 25280E   25361.49163363  .00075135  00000+0  12113-2 0  9996",
        "tle_line2": "2 66825  70.0002 158.0010 0003194 270.8101  89.2720 15.52547274  5228"
      },
      "geometry": {
        "type": "Point",
        "coordinates": [
          -2.013970106289532,
          -44.0432938333472
        ]
      }
    },
    {
      "type": "Feature",
      "properties": {
        "norad_id": 66826,
        "name": "STARLINK-35898",
        "group": "last-30-days",
        "lat": -45.75711903046437,
        "lon": -0.6807702247728813,
        "alt_km": 413.59640861086336,
        "timestamp": "2025-12-27T17:24:56.106242+00:00",
        "meta_object_name": "STARLINK-35898",
        "meta_object_id": "2025-280F",
        "meta_epoch": "2025-12-27T11:47:27.777408",
        "meta_mean_motion": 15.52606853,
        "meta_eccentricity": 0.0002978,
        "meta_inclination": 70.0002,
        "meta_ra_of_asc_node": 157.9995,
        "meta_arg_of_pericenter": 269.7878,
        "meta_mean_anomaly": 90.2968,
        "meta_ephemeris_type": 0,
        "meta_classification_type": "U",
        "meta_norad_cat_id": 66826,
        "meta_element_set_no": 999,
        "meta_rev_at_epoch": 522,
        "meta_bstar": 0.0016734,
        "meta_mean_motion_dot": 0.00104468,
        "meta_mean_motion_ddot": 0,
        "tle_line1": "1 66826U 25280F   25361.49129372  .00104468  00000+0  16734-2 0  9994",
        "tle_line2": "2 66826  70.0002 157.9995 0002978 269.7878  90.2968 15.52606853  5221"
      },
      "geometry": {
        "type": "Point",
        "coordinates": [
          -0.6807702247728813,
          -45.75711903046437
        ]
      }
    },
    {
      "type": "Feature",
      "properties": {
        "norad_id": 66827,
        "name": "STARLINK-35959",
        "group": "last-30-days",
        "lat": -47.406966547118415,
        "lon": 0.6958202884921538,
        "alt_km": 413.5037722639927,
        "timestamp": "2025-12-27T17:24:56.106253+00:00",
        "meta_object_name": "STARLINK-35959",
        "meta_object_id": "2025-280G",
        "meta_epoch": "2025-12-27T11:46:57.823392",
        "meta_mean_motion": 15.5257646,
        "meta_eccentricity": 0.0003425,
        "meta_inclination": 70.0002,
        "meta_ra_of_asc_node": 157.9982,
        "meta_arg_of_pericenter": 272.386,
        "meta_mean_anomaly": 87.6935,
        "meta_ephemeris_type": 0,
        "meta_classification_type": "U",
        "meta_norad_cat_id": 66827,
        "meta_element_set_no": 999,
        "meta_rev_at_epoch": 522,
        "meta_bstar": 0.0019084,
        "meta_mean_motion_dot": 0.00119266,
        "meta_mean_motion_ddot": 0,
        "tle_line1": "1 66827U 25280G   25361.49094703  .00119266  00000+0  19084-2 0  9997",
        "tle_line2": "2 66827  70.0002 157.9982 0003425 272.3860  87.6935 15.52576460  5221"
      },
      "geometry": {
        "type": "Point",
        "coordinates": [
          0.6958202884921538,
          -47.406966547118415
        ]
      }
    },
    {
      "type": "Feature",
      "properties": {
        "norad_id": 66828,
        "name": "STARLINK-35982",
        "group": "last-30-days",
        "lat": -50.726445755418396,
        "lon": 3.8014129142271993,
        "alt_km": 413.50078645593294,
        "timestamp": "2025-12-27T17:24:56.106267+00:00",
        "meta_object_name": "STARLINK-35982",
        "meta_object_id": "2025-280H",
        "meta_epoch": "2025-12-27T04:02:05.439264",
        "meta_mean_motion": 15.52538527,
        "meta_eccentricity": 0.00031976,
        "meta_inclination": 70.0003,
        "meta_ra_of_asc_node": 158.8781,
        "meta_arg_of_pericenter": 275.6823,
        "meta_mean_anomaly": 84.3999,
        "meta_ephemeris_type": 0,
        "meta_classification_type": "U",
        "meta_norad_cat_id": 66828,
        "meta_element_set_no": 999,
        "meta_rev_at_epoch": 517,
        "meta_bstar": 0.0022656765,
        "meta_mean_motion_dot": 0.00141831,
        "meta_mean_motion_ddot": 0,
        "tle_line1": "1 66828U 25280H   25361.16811851  .00141831  00000+0  22657-2 0  9996",
        "tle_line2": "2 66828  70.0003 158.8781 0003197 275.6823  84.3999 15.52538527  5171"
      },
      "geometry": {
        "type": "Point",
        "coordinates": [
          3.8014129142271993,
          -50.726445755418396
        ]
      }
    }
  ]
}